start=new Date('2023-01-05T00:00:00.000Z').valueOf();
sats=[{"TIME_SYSTEM":"UTC","LAUNCH_DATE":"2021-05-04","MEAN_ELEMENT_THEORY":"SGP4","INCLINATION":"53.0556","EPOCH":"2023-01-04T13:49:49.974240","PERIAPSIS":"546.306","OBJECT_ID":"2021-038BH","FILE":"3732037","MEAN_MOTION_DDOT":"0.0000000000000","MEAN_MOTION":"15.06402917","TLE_LINE2":"2 48408  53.0556 149.5845 0001298  97.6135 262.5002 15.06402917 93034","SITE":"AFETR","CENTER_NAME":"EARTH","GP_ID":"222193481","RA_OF_ASC_NODE":"149.5845","REV_AT_EPOCH":"9303","REF_FRAME":"TEME","COUNTRY_CODE":"US","MEAN_MOTION_DOT":"0.00002971","PERIOD":"95.592","MEAN_ANOMALY":"262.5002","EPHEMERIS_TYPE":"0","BSTAR":"0.00021825000000","NORAD_CAT_ID":"48408","ELEMENT_SET_NO":"999","CLASSIFICATION_TYPE":"U","DECAY_DATE":null,"RCS_SIZE":"LARGE","TLE_LINE1":"1 48408U 21038BH  23004.57627285  .00002971  00000-0  21825-3 0  9999","APOAPSIS":"548.104","ARG_OF_PERICENTER":"97.6135","SEMIMAJOR_AXIS":"6925.340","OBJECT_TYPE":"PAYLOAD","OBJECT_NAME":"STARLINK-2592","ECCENTRICITY":"0.00012980"},{"TLE_LINE1":"1 48409U 21038BJ  23004.66613594  .00000530  00000-0  54467-4 0  9996","APOAPSIS":"548.096","RCS_SIZE":"LARGE","OBJECT_NAME":"STARLINK-2596","ECCENTRICITY":"0.00012170","OBJECT_TYPE":"PAYLOAD","SEMIMAJOR_AXIS":"6925.388","ARG_OF_PERICENTER":"83.8080","EPHEMERIS_TYPE":"0","BSTAR":"0.00005446700000","MEAN_ANOMALY":"276.3047","PERIOD":"95.593","MEAN_MOTION_DOT":"0.00000530","CLASSIFICATION_TYPE":"U","DECAY_DATE":null,"NORAD_CAT_ID":"48409","ELEMENT_SET_NO":"999","CENTER_NAME":"EARTH","GP_ID":"222193768","TLE_LINE2":"2 48409  53.0528 154.1735 0001217  83.8080 276.3047 15.06387138 92983","SITE":"AFETR","COUNTRY_CODE":"US","RA_OF_ASC_NODE":"154.1735","REV_AT_EPOCH":"9298","REF_FRAME":"TEME","LAUNCH_DATE":"2021-05-04","EPOCH":"2023-01-04T15:59:14.145216","INCLINATION":"53.0528","MEAN_ELEMENT_THEORY":"SGP4","TIME_SYSTEM":"UTC","MEAN_MOTION":"15.06387138","MEAN_MOTION_DDOT":"0.0000000000000","FILE":"3732043","OBJECT_ID":"2021-038BJ","PERIAPSIS":"546.410"},{"OBJECT_ID":"2021-038BK","PERIAPSIS":"545.890","MEAN_MOTION":"15.06403151","FILE":"3732065","MEAN_MOTION_DDOT":"0.0000000000000","EPOCH":"2023-01-04T12:54:46.874592","LAUNCH_DATE":"2021-05-04","INCLINATION":"53.0544","MEAN_ELEMENT_THEORY":"SGP4","TIME_SYSTEM":"UTC","REF_FRAME":"TEME","RA_OF_ASC_NODE":"104.7502","REV_AT_EPOCH":"9365","COUNTRY_CODE":"US","SITE":"AFETR","TLE_LINE2":"2 48410  53.0544 104.7502 0001897  56.5552 303.5618 15.06403151 93657","GP_ID":"222194236","CENTER_NAME":"EARTH","ELEMENT_SET_NO":"999","NORAD_CAT_ID":"48410","DECAY_DATE":null,"CLASSIFICATION_TYPE":"U","PERIOD":"95.592","MEAN_MOTION_DOT":"0.00000603","BSTAR":"0.00005940500000","EPHEMERIS_TYPE":"0","MEAN_ANOMALY":"303.5618","OBJECT_TYPE":"PAYLOAD","ARG_OF_PERICENTER":"56.5552","SEMIMAJOR_AXIS":"6925.339","OBJECT_NAME":"STARLINK-2563","ECCENTRICITY":"0.00018970","RCS_SIZE":"LARGE","APOAPSIS":"548.518","TLE_LINE1":"1 48410U 21038BK  23004.53804253  .00000603  00000-0  59405-4 0  9996"},{"RCS_SIZE":"LARGE","TLE_LINE1":"1 48411U 21038BL  23004.55510741 -.00000513  00000-0 -15527-4 0  9994","APOAPSIS":"548.502","SEMIMAJOR_AXIS":"6925.390","ARG_OF_PERICENTER":"44.2473","OBJECT_TYPE":"PAYLOAD","OBJECT_NAME":"STARLINK-2505","ECCENTRICITY":"0.00018000","MEAN_MOTION_DOT":"-0.00000513","PERIOD":"95.593","MEAN_ANOMALY":"315.8660","EPHEMERIS_TYPE":"0","BSTAR":"-0.00001552700000","NORAD_CAT_ID":"48411","ELEMENT_SET_NO":"999","CLASSIFICATION_TYPE":"U","DECAY_DATE":null,"TLE_LINE2":"2 48411  53.0541  99.6724 0001800  44.2473 315.8660 15.06386473 93158","SITE":"AFETR","CENTER_NAME":"EARTH","GP_ID":"222158322","REV_AT_EPOCH":"9315","RA_OF_ASC_NODE":"99.6724","REF_FRAME":"TEME","COUNTRY_CODE":"US","TIME_SYSTEM":"UTC","LAUNCH_DATE":"2021-05-04","MEAN_ELEMENT_THEORY":"SGP4","INCLINATION":"53.0541","EPOCH":"2023-01-04T13:19:21.280224","PERIAPSIS":"546.008","OBJECT_ID":"2021-038BL","MEAN_MOTION_DDOT":"0.0000000000000","FILE":"3731823","MEAN_MOTION":"15.06386473"},{"OBJECT_ID":"2021-038BM","PERIAPSIS":"546.143","MEAN_MOTION":"15.06408914","FILE":"3732099","MEAN_MOTION_DDOT":"0.0000000000000","LAUNCH_DATE":"2021-05-04","INCLINATION":"53.0555","MEAN_ELEMENT_THEORY":"SGP4","EPOCH":"2023-01-04T13:45:57.000960","TIME_SYSTEM":"UTC","REF_FRAME":"TEME","REV_AT_EPOCH":"9372","RA_OF_ASC_NODE":"100.0308","COUNTRY_CODE":"US","SITE":"AFETR","TLE_LINE2":"2 48412  53.0555 100.0308 0001506  65.8265 294.2881 15.06408914 93723","GP_ID":"222194932","CENTER_NAME":"EARTH","ELEMENT_SET_NO":"999","NORAD_CAT_ID":"48412","DECAY_DATE":null,"CLASSIFICATION_TYPE":"U","PERIOD":"95.592","MEAN_MOTION_DOT":"0.00005513","BSTAR":"0.00038861000000","EPHEMERIS_TYPE":"0","MEAN_ANOMALY":"294.2881","OBJECT_TYPE":"PAYLOAD","SEMIMAJOR_AXIS":"6925.321","ARG_OF_PERICENTER":"65.8265","OBJECT_NAME":"STARLINK-2581","ECCENTRICITY":"0.00015060","RCS_SIZE":"LARGE","APOAPSIS":"548.229","TLE_LINE1":"1 48412U 21038BM  23004.57357640  .00005513  00000-0  38861-3 0  9992"},{"SITE":"AFETR","TLE_LINE2":"2 48428  53.0559 355.1466 0002197  43.0559 317.0602 15.06398662 91689","GP_ID":"222159075","CENTER_NAME":"EARTH","REF_FRAME":"TEME","RA_OF_ASC_NODE":"355.1466","REV_AT_EPOCH":"9168","COUNTRY_CODE":"US","EPOCH":"2023-01-04T10:46:04.232640","LAUNCH_DATE":"2021-05-09","INCLINATION":"53.0559","MEAN_ELEMENT_THEORY":"SGP4","TIME_SYSTEM":"UTC","OBJECT_ID":"2021-040A","PERIAPSIS":"545.696","MEAN_MOTION":"15.06398662","FILE":"3731823","MEAN_MOTION_DDOT":"0.0000000000000","RCS_SIZE":"LARGE","APOAPSIS":"548.739","TLE_LINE1":"1 48428U 21040A   23004.44866010  .00000975  00000-0  84334-4 0  9998","OBJECT_TYPE":"PAYLOAD","ARG_OF_PERICENTER":"43.0559","SEMIMAJOR_AXIS":"6925.353","OBJECT_NAME":"STARLINK-2461","ECCENTRICITY":"0.00021970","PERIOD":"95.592","MEAN_MOTION_DOT":"0.00000975","BSTAR":"0.00008433400000","EPHEMERIS_TYPE":"0","MEAN_ANOMALY":"317.0602","ELEMENT_SET_NO":"999","NORAD_CAT_ID":"48428","DECAY_DATE":null,"CLASSIFICATION_TYPE":"U"},{"FILE":"3731895","MEAN_MOTION_DDOT":"0.0000000000000","MEAN_MOTION":"15.06426108","PERIAPSIS":"546.130","OBJECT_ID":"2021-040B","TIME_SYSTEM":"UTC","INCLINATION":"53.0548","LAUNCH_DATE":"2021-05-09","MEAN_ELEMENT_THEORY":"SGP4","EPOCH":"2023-01-04T16:24:26.316288","COUNTRY_CODE":"US","REF_FRAME":"TEME","RA_OF_ASC_NODE":"324.0981","REV_AT_EPOCH":"9341","GP_ID":"222190199","CENTER_NAME":"EARTH","SITE":"AFETR","TLE_LINE2":"2 48429  53.0548 324.0981 0001449  64.5418 295.5721 15.06426108 93418","DECAY_DATE":null,"CLASSIFICATION_TYPE":"U","ELEMENT_SET_NO":"999","NORAD_CAT_ID":"48429","MEAN_ANOMALY":"295.5721","BSTAR":"0.00150190000000","EPHEMERIS_TYPE":"0","MEAN_MOTION_DOT":"0.00022176","PERIOD":"95.590","OBJECT_NAME":"STARLINK-2749","ECCENTRICITY":"0.00014490","ARG_OF_PERICENTER":"64.5418","SEMIMAJOR_AXIS":"6925.269","OBJECT_TYPE":"PAYLOAD","APOAPSIS":"548.137","TLE_LINE1":"1 48429U 21040B   23004.68363792  .00022176  00000-0  15019-2 0  9993","RCS_SIZE":"LARGE"},{"FILE":"3732053","MEAN_MOTION_DDOT":"0.0000000000000","MEAN_MOTION":"15.06422293","PERIAPSIS":"545.487","OBJECT_ID":"2021-040C","TIME_SYSTEM":"UTC","LAUNCH_DATE":"2021-05-09","INCLINATION":"53.0547","EPOCH":"2023-01-04T13:59:46.340736","MEAN_ELEMENT_THEORY":"SGP4","COUNTRY_CODE":"US","REV_AT_EPOCH":"9340","RA_OF_ASC_NODE":"324.5434","REF_FRAME":"TEME","CENTER_NAME":"EARTH","GP_ID":"222194015","TLE_LINE2":"2 48430  53.0547 324.5434 0002394  37.7218 322.3938 15.06422293 93406","SITE":"AFETR","CLASSIFICATION_TYPE":"U","DECAY_DATE":null,"NORAD_CAT_ID":"48430","ELEMENT_SET_NO":"999","MEAN_ANOMALY":"322.3938","EPHEMERIS_TYPE":"0","BSTAR":"0.00145840000000","MEAN_MOTION_DOT":"0.00021522","PERIOD":"95.591","ECCENTRICITY":"0.00023940","OBJECT_NAME":"STARLINK-2729","ARG_OF_PERICENTER":"37.7218","SEMIMAJOR_AXIS":"6925.280","OBJECT_TYPE":"PAYLOAD","TLE_LINE1":"1 48430U 21040C   23004.58317524  .00021522  00000-0  14584-2 0  9996","APOAPSIS":"548.803","RCS_SIZE":"LARGE"},{"MEAN_ANOMALY":"307.8488","BSTAR":"0.00013064000000","EPHEMERIS_TYPE":"0","MEAN_MOTION_DOT":"0.00001664","PERIOD":"95.593","DECAY_DATE":null,"CLASSIFICATION_TYPE":"U","ELEMENT_SET_NO":"999","NORAD_CAT_ID":"48431","APOAPSIS":"548.651","TLE_LINE1":"1 48431U 21040D   23004.26481192  .00001664  00000-0  13064-3 0  9993","RCS_SIZE":"LARGE","OBJECT_NAME":"STARLINK-2700","ECCENTRICITY":"0.00020080","ARG_OF_PERICENTER":"52.2683","SEMIMAJOR_AXIS":"6925.395","OBJECT_TYPE":"PAYLOAD","TIME_SYSTEM":"UTC","MEAN_ELEMENT_THEORY":"SGP4","LAUNCH_DATE":"2021-05-09","INCLINATION":"53.0567","EPOCH":"2023-01-04T06:21:19.749888","MEAN_MOTION_DDOT":"0.0000000000000","FILE":"3731823","MEAN_MOTION":"15.06384770","PERIAPSIS":"545.870","OBJECT_ID":"2021-040D","GP_ID":"222158324","CENTER_NAME":"EARTH","SITE":"AFETR","TLE_LINE2":"2 48431  53.0567 320.9789 0002008  52.2683 307.8488 15.06384770 92147","COUNTRY_CODE":"US","REF_FRAME":"TEME","RA_OF_ASC_NODE":"320.9789","REV_AT_EPOCH":"9214"},{"CENTER_NAME":"EARTH","GP_ID":"222158575","TLE_LINE2":"2 48432  53.0574 314.9695 0001648  54.8399 305.2744 15.06402317 92253","SITE":"AFETR","COUNTRY_CODE":"US","RA_OF_ASC_NODE":"314.9695","REV_AT_EPOCH":"9225","REF_FRAME":"TEME","TIME_SYSTEM":"UTC","LAUNCH_DATE":"2021-05-09","INCLINATION":"53.0574","MEAN_ELEMENT_THEORY":"SGP4","EPOCH":"2023-01-04T13:51:54.893952","MEAN_MOTION_DDOT":"0.0000000000000","FILE":"3731823","MEAN_MOTION":"15.06402317","PERIAPSIS":"546.065","OBJECT_ID":"2021-040E","TLE_LINE1":"1 48432U 21040E   23004.57771868  .00003278  00000-0  23882-3 0  9992","APOAPSIS":"548.348","RCS_SIZE":"LARGE","ECCENTRICITY":"0.00016480","OBJECT_NAME":"STARLINK-2680","ARG_OF_PERICENTER":"54.8399","SEMIMAJOR_AXIS":"6925.341","OBJECT_TYPE":"PAYLOAD","MEAN_ANOMALY":"305.2744","BSTAR":"0.00023882000000","EPHEMERIS_TYPE":"0","MEAN_MOTION_DOT":"0.00003278","PERIOD":"95.592","CLASSIFICATION_TYPE":"U","DECAY_DATE":null,"NORAD_CAT_ID":"48432","ELEMENT_SET_NO":"999"}];
